ICEYE-X39               
1 60546U 24149CG  26192.75947700  .00002501  00000+0  20551-3 0  9993
2 60546  97.6781 269.4505 0007010  56.0311 304.1578 15.00057313103801
UMBRA-10                
1 60547U 24149CH  26192.77951364  .00009005  00000+0  43623-3 0  9998
2 60547  97.6983 280.4472 0001471 169.7068 190.4196 15.18785708104468
ICEYE-X33               
1 60548U 24149CJ  26190.83635085  .00003143  00000+0  25135-3 0  9998
2 60548  97.7345 269.8614 0001952  73.3938 286.7500 15.00937312103605
ICEYE-X40               
1 60549U 24149CK  26192.75053318  .00001261  00000+0  11153-3 0  9999
2 60549  97.6797 268.8525 0003835  17.7554 342.3802 14.98053462103755
SATELIOT_1              
1 60550U 24149CL  26192.73963049  .00001029  00000+0  91695-4 0  9992
2 60550  97.6733 268.2297 0006048   2.2336 357.8912 14.98154644103749
BRO-14                  
1 60551U 24149CM  26192.67240465  .00000569  00000+0  55479-4 0  9994
2 60551  97.6861 268.0100 0006989  27.4384 332.7206 14.96229545103658
SATELIOT_3              
1 60552U 24149CN  26192.78234642  .00000615  00000+0  56787-4 0  9992
2 60552  97.6824 269.0861 0005427  19.1624 340.9802 14.98159770103763
BRO-15                  
1 60553U 24149CP  26190.44813664  .00000727  00000+0  69494-4 0  9994
2 60553  97.6798 265.4070 0008525  23.7668 336.3946 14.96220766103330
UM5-RIBAT               
1 60554U 24149CQ  26192.73546740  .00001433  00000+0  11632-3 0  9992
2 60554  97.6613 270.2033 0001078  11.1968 348.9280 15.01209332103872
LASARSAT                
1 62391U 24247Q   26192.18947241  .00022765  00000+0  43321-3 0  9993
2 62391  44.9745 127.1862 0006875 135.1375 225.0072 15.47861056 87033
CROCUBE                 
1 62394U 24247T   26191.18961366  .00033442  00000+0  58812-3 0  9994
2 62394  44.9700 129.7539 0006914 137.1599 222.9832 15.49924104 86912
TEVEL2-5                
1 63214U 25052E   26192.65062918  .00011136  00000+0  32708-3 0  9991
2 63214  97.3876  89.0343 0003877  60.2304 299.9325 15.35297561 73862
TEVEL2-6                
1 63215U 25052F   26192.66351914  .00011163  00000+0  32824-3 0  9999
2 63215  97.3879  89.0323 0003848  63.3190 296.8447 15.35261289 73868
TEVEL2-1                
1 63217U 25052H   26192.70130582  .00010384  00000+0  31099-3 0  9999
2 63217  97.3853  88.6646 0004497  67.0289 293.1429 15.34696214 73854
TEVEL2-3                
1 63218U 25052J   26192.69500671  .00010066  00000+0  30100-3 0  9997
2 63218  97.3859  88.6837 0004262  68.4805 291.6893 15.34757646 73857
TEVEL2-2                
1 63219U 25052K   26192.70145763  .00010151  00000+0  30398-3 0  9991
2 63219  97.3852  88.6678 0004523  67.8714 292.3009 15.34706297 73859
TEVEL2-9                
1 63237U 25052AD  26192.64577432  .00009894  00000+0  31582-3 0  9994
2 63237  97.3918  87.9332 0007942  66.4852 293.7224 15.32659947 73779
TEVEL2-8                
1 63239U 25052AF  26192.70001789  .00009255  00000+0  29864-3 0  9991
2 63239  97.3915  87.8685 0008055  67.3029 292.9064 15.32332149 73775
FORESAIL-1 PRIME        
1 66778U 25276DS  26192.76858058  .00002762  00000+0  13554-3 0  9990
2 66778  97.4195 265.5912 0003142  52.4628 307.6892 15.18920146 34131
